{
  "type": "FeatureCollection",
  "features": [
    {
      "type": "Feature",
      "properties": {
        "norad_id": 31955,
        "name": "FENGYUN 1C DEB",
        "group": "fengyun-1c-debris",
        "lat": -9.941460979606843,
        "lon": -140.81950914477991,
        "alt_km": 712.1917231523721,
        "timestamp": "2025-12-07T09:35:10.075634+00:00",
        "meta_object_name": "FENGYUN 1C DEB",
        "meta_object_id": "1999-025CNG",
        "meta_epoch": "2025-12-06T22:13:34.246848",
        "meta_mean_motion": 14.63733777,
        "meta_eccentricity": 0.0043149,
        "meta_inclination": 99.2803,
        "meta_ra_of_asc_node": 217.0058,
        "meta_arg_of_pericenter": 199.2043,
        "meta_mean_anomaly": 177.845,
        "meta_ephemeris_type": 0,
        "meta_classification_type": "U",
        "meta_norad_cat_id": 31955,
        "meta_element_set_no": 999,
        "meta_rev_at_epoch": 96472,
        "meta_bstar": 0.0026464356,
        "meta_mean_motion_dot": 0.0001394,
        "meta_mean_motion_ddot": 0,
        "tle_line1": "1 31955U 99025CNG 25340.92609082  .00013940  00000+0  26464-2 0  9998",
        "tle_line2": "2 31955  99.2803 217.0058 0043149 199.2043 177.8450 14.63733777964726"
      },
      "geometry": {
        "type": "Point",
        "coordinates": [
          -140.81950914477991,
          -9.941460979606843
        ]
      }
    },
    {
      "type": "Feature",
      "properties": {
        "norad_id": 31959,
        "name": "FENGYUN 1C DEB",
        "group": "fengyun-1c-debris",
        "lat": 7.3863183266066175,
        "lon": -148.731472090572,
        "alt_km": 756.9846350241041,
        "timestamp": "2025-12-07T09:35:10.075644+00:00",
        "meta_object_name": "FENGYUN 1C DEB",
        "meta_object_id": "1999-025CNL",
        "meta_epoch": "2025-12-06T21:55:52.829760",
        "meta_mean_motion": 14.46598165,
        "meta_eccentricity": 0.00265669,
        "meta_inclination": 98.5093,
        "meta_ra_of_asc_node": 211.893,
        "meta_arg_of_pericenter": 174.6501,
        "meta_mean_anomaly": 185.498,
        "meta_ephemeris_type": 0,
        "meta_classification_type": "U",
        "meta_norad_cat_id": 31959,
        "meta_element_set_no": 999,
        "meta_rev_at_epoch": 64269,
        "meta_bstar": 0.0041280516,
        "meta_mean_motion_dot": 0.0001494,
        "meta_mean_motion_ddot": 0,
        "tle_line1": "1 31959U 99025CNL 25340.91380590  .00014940  00000+0  41281-2 0  9996",
        "tle_line2": "2 31959  98.5093 211.8930 0026566 174.6501 185.4980 14.46598165642697"
      },
      "geometry": {
        "type": "Point",
        "coordinates": [
          -148.731472090572,
          7.3863183266066175
        ]
      }
    },
    {
      "type": "Feature",
      "properties": {
        "norad_id": 31964,
        "name": "FENGYUN 1C DEB",
        "group": "fengyun-1c-debris",
        "lat": -74.39777153535674,
        "lon": 138.0383213031008,
        "alt_km": 717.9029477462091,
        "timestamp": "2025-12-07T09:35:10.075654+00:00",
        "meta_object_name": "FENGYUN 1C DEB",
        "meta_object_id": "1999-025CNR",
        "meta_epoch": "2025-12-06T14:10:40.867392",
        "meta_mean_motion": 14.58272447,
        "meta_eccentricity": 0.00288541,
        "meta_inclination": 98.7002,
        "meta_ra_of_asc_node": 103.9384,
        "meta_arg_of_pericenter": 51.5034,
        "meta_mean_anomaly": 308.8744,
        "meta_ephemeris_type": 0,
        "meta_classification_type": "U",
        "meta_norad_cat_id": 31964,
        "meta_element_set_no": 999,
        "meta_rev_at_epoch": 67420,
        "meta_bstar": 0.0044938575,
        "meta_mean_motion_dot": 0.00020897,
        "meta_mean_motion_ddot": 0,
        "tle_line1": "1 31964U 99025CNR 25340.59075078  .00020897  00000+0  44939-2 0  9999",
        "tle_line2": "2 31964  98.7002 103.9384 0028854  51.5034 308.8744 14.58272447674201"
      },
      "geometry": {
        "type": "Point",
        "coordinates": [
          138.0383213031008,
          -74.39777153535674
        ]
      }
    },
    {
      "type": "Feature",
      "properties": {
        "norad_id": 31966,
        "name": "FENGYUN 1C DEB",
        "group": "fengyun-1c-debris",
        "lat": 80.62790261425229,
        "lon": 59.279463764530036,
        "alt_km": 717.3275612075213,
        "timestamp": "2025-12-07T09:35:10.075667+00:00",
        "meta_object_name": "FENGYUN 1C DEB",
        "meta_object_id": "1999-025CNT",
        "meta_epoch": "2025-12-06T16:49:19.238304",
        "meta_mean_motion": 14.67408953,
        "meta_eccentricity": 0.00862146,
        "meta_inclination": 99.0171,
        "meta_ra_of_asc_node": 132.69,
        "meta_arg_of_pericenter": 293.4744,
        "meta_mean_anomaly": 65.7413,
        "meta_ephemeris_type": 0,
        "meta_classification_type": "U",
        "meta_norad_cat_id": 31966,
        "meta_element_set_no": 999,
        "meta_rev_at_epoch": 65654,
        "meta_bstar": 0.0020726138,
        "meta_mean_motion_dot": 0.00012351,
        "meta_mean_motion_ddot": 0,
        "tle_line1": "1 31966U 99025CNT 25340.70091711  .00012351  00000+0  20726-2 0  9990",
        "tle_line2": "2 31966  99.0171 132.6900 0086214 293.4744  65.7413 14.67408953656548"
      },
      "geometry": {
        "type": "Point",
        "coordinates": [
          59.279463764530036,
          80.62790261425229
        ]
      }
    },
    {
      "type": "Feature",
      "properties": {
        "norad_id": 31972,
        "name": "FENGYUN 1C DEB",
        "group": "fengyun-1c-debris",
        "lat": -19.39141829202769,
        "lon": -160.3299797012237,
        "alt_km": 922.6592793967593,
        "timestamp": "2025-12-07T09:35:10.075677+00:00",
        "meta_object_name": "FENGYUN 1C DEB",
        "meta_object_id": "1999-025CNZ",
        "meta_epoch": "2025-12-06T14:35:15.945216",
        "meta_mean_motion": 14.07506464,
        "meta_eccentricity": 0.00771303,
        "meta_inclination": 99.2128,
        "meta_ra_of_asc_node": 22.138,
        "meta_arg_of_pericenter": 48.7495,
        "meta_mean_anomaly": 101.5389,
        "meta_ephemeris_type": 0,
        "meta_classification_type": "U",
        "meta_norad_cat_id": 31972,
        "meta_element_set_no": 999,
        "meta_rev_at_epoch": 94874,
        "meta_bstar": 0.0002745014,
        "meta_mean_motion_dot": 4.29e-06,
        "meta_mean_motion_ddot": 0,
        "tle_line1": "1 31972U 99025CNZ 25340.60782344  .00000429  00000+0  27450-3 0  9990",
        "tle_line2": "2 31972  99.2128  22.1380 0077130  48.7495 101.5389 14.07506464948742"
      },
      "geometry": {
        "type": "Point",
        "coordinates": [
          -160.3299797012237,
          -19.39141829202769
        ]
      }
    },
    {
      "type": "Feature",
      "properties": {
        "norad_id": 31974,
        "name": "FENGYUN 1C DEB",
        "group": "fengyun-1c-debris",
        "lat": -65.86529424946238,
        "lon": 153.52423329477745,
        "alt_km": 784.2378865296523,
        "timestamp": "2025-12-07T09:35:10.075689+00:00",
        "meta_object_name": "FENGYUN 1C DEB",
        "meta_object_id": "1999-025CPB",
        "meta_epoch": "2025-12-04T11:32:51.698688",
        "meta_mean_motion": 14.29356268,
        "meta_eccentricity": 0.0071722,
        "meta_inclination": 98.3792,
        "meta_ra_of_asc_node": 349.9234,
        "meta_arg_of_pericenter": 327.4544,
        "meta_mean_anomaly": 32.2227,
        "meta_ephemeris_type": 0,
        "meta_classification_type": "U",
        "meta_norad_cat_id": 31974,
        "meta_element_set_no": 999,
        "meta_rev_at_epoch": 69304,
        "meta_bstar": 0.005893,
        "meta_mean_motion_dot": 0.00015424,
        "meta_mean_motion_ddot": 0,
        "tle_line1": "1 31974U 99025CPB 25338.48115392  .00015424  00000+0  58930-2 0  9995",
        "tle_line2": "2 31974  98.3792 349.9234 0071722 327.4544  32.2227 14.29356268693042"
      },
      "geometry": {
        "type": "Point",
        "coordinates": [
          153.52423329477745,
          -65.86529424946238
        ]
      }
    },
    {
      "type": "Feature",
      "properties": {
        "norad_id": 31978,
        "name": "FENGYUN 1C DEB",
        "group": "fengyun-1c-debris",
        "lat": 56.09033025955356,
        "lon": -30.162982824826926,
        "alt_km": 914.4396201494665,
        "timestamp": "2025-12-07T09:35:10.075699+00:00",
        "meta_object_name": "FENGYUN 1C DEB",
        "meta_object_id": "1999-025CPF",
        "meta_epoch": "2025-12-05T09:26:48.442272",
        "meta_mean_motion": 13.63089053,
        "meta_eccentricity": 0.02631323,
        "meta_inclination": 98.3803,
        "meta_ra_of_asc_node": 135.4409,
        "meta_arg_of_pericenter": 69.4232,
        "meta_mean_anomaly": 293.4931,
        "meta_ephemeris_type": 0,
        "meta_classification_type": "U",
        "meta_norad_cat_id": 31978,
        "meta_element_set_no": 999,
        "meta_rev_at_epoch": 91490,
        "meta_bstar": 0.0019607422,
        "meta_mean_motion_dot": 1.908e-05,
        "meta_mean_motion_ddot": 0,
        "tle_line1": "1 31978U 99025CPF 25339.39361623  .00001908  00000+0  19607-2 0  9990",
        "tle_line2": "2 31978  98.3803 135.4409 0263132  69.4232 293.4931 13.63089053914902"
      },
      "geometry": {
        "type": "Point",
        "coordinates": [
          -30.162982824826926,
          56.09033025955356
        ]
      }
    }
  ]
}